ORBCOMM FM05            
1 25117U 97084F   25338.28596127  .00004177  00000+0  11845-2 0  9994
2 25117  45.0143 270.9606 0003783 343.3931  16.6796 14.46659061465239
ORBCOMM FM06            
1 25118U 97084G   25338.22104796  .00004318  00000+0  12192-2 0  9999
2 25118  45.0136 270.8078 0002716 337.7656 175.2064 14.46819702466141
ORBCOMM FM07            
1 25119U 97084H   25338.54938845  .00003859  00000+0  10936-2 0  9998
2 25119  45.0130 269.9805 0004606 343.9656  16.1049 14.46831572466181
ORBCOMM FM03            
1 25158U 98007B   25338.67033251  .00002812  00000+0  10194-2 0  9992
2 25158 107.9633 125.9073 0046182 308.1471  51.5512 14.34991237448495
ORBCOMM FM04            
1 25159U 98007C   25338.34662917  .00002377  00000+0  86648-3 0  9998
2 25159 107.9635 128.5782 0042034 305.8764  53.8477 14.35234700448632
ORBCOMM FM17            
1 25413U 98046A   25338.58524800  .00001536  00000+0  57764-3 0  9991
2 25413  44.9924 173.1877 0002626   1.9320 358.1537 14.35508466427652
ORBCOMM FM18            
1 25414U 98046B   25338.60569154  .00003282  00000+0  10965-2 0  9997
2 25414  44.9920  85.8536 0003100  77.6133 282.5062 14.39114411428796
ORBCOMM FM19            
1 25415U 98046C   25338.67004845  .00003376  00000+0  11305-2 0  9999
2 25415  44.9931  87.8086 0001928  79.2594  55.3775 14.38935310428757
